ONEWEB-0495             
1 54115U 22138C   25210.84054155  .00000023  00000+0  24377-4 0  9995
2 54115  87.9230   9.0617 0002436  83.3026 276.8384 13.19724209135170
ONEWEB-0497             
1 54116U 22138D   25210.85318498  .00000064  00000+0  12751-3 0  9997
2 54116  87.9233   9.0309 0001910  91.8649 268.2702 13.19726600135168
ONEWEB-0499             
1 54117U 22138E   25210.83582956  .00000018  00000+0  12617-4 0  9999
2 54117  87.9230   9.0534 0002149  98.4784 261.6592 13.19724955135170
ONEWEB-0500             
1 54118U 22138F   25210.83897303 -.00000002  00000+0 -37669-4 0  9994
2 54118  87.9234   9.0368 0001801  92.9734 267.1605 13.19725930135189
ONEWEB-0501             
1 54119U 22138G   25210.86899645  .00000016  00000+0  67973-5 0  9994
2 54119  87.9233   9.0237 0002230  88.5165 271.6223 13.19724619135167
ONEWEB-0502             
1 54120U 22138H   25210.85477730  .00000045  00000+0  81270-4 0  9999
2 54120  87.9232   9.0102 0002142  93.3806 266.7571 13.19725163135185
ONEWEB-0503             
1 54121U 22138J   25210.46462853  .00000100  00000+0  21687-3 0  9994
2 54121  87.9231   9.0923 0001971 103.0171 257.1182 13.19726373134252
ONEWEB-0504             
1 54122U 22138K   25210.83108277 -.00000006  00000+0 -48280-4 0  9999
2 54122  87.9234   9.0351 0002158  94.6415 265.4965 13.19725546135180
ONEWEB-0505             
1 54123U 22138L   25210.52463187  .00000084  00000+0  17642-3 0  9991
2 54123  87.9232   9.0852 0002406  89.3758 270.7651 13.19725112134259
ONEWEB-0506             
1 54124U 22138M   25210.42356708  .00000027  00000+0  36309-4 0  9990
2 54124  87.9232   9.1023 0002031  92.2065 267.9300 13.19725667134231
ONEWEB-0507             
1 54125U 22138N   25210.89898312 -.00000193  00000+0 -51493-3 0  9990
2 54125  87.9230   9.0615 0002030  89.5137 270.6228 13.19725099135212
ONEWEB-0508             
1 54126U 22138P   25210.51675812  .00000056  00000+0  10783-3 0  9991
2 54126  87.9229   9.1202 0002152  85.8599 274.2780 13.19726069134276
ONEWEB-0509             
1 54127U 22138Q   25210.87056434  .00000019  00000+0  14396-4 0  9998
2 54127  87.9234   9.0110 0001982  92.3312 267.8047 13.19725401135168
ONEWEB-0510             
1 54128U 22138R   25210.33180675  .00000106  00000+0  22773-3 0  9999
2 54128  87.9296 338.7602 0001468 111.3131 248.8159 13.20773015136660
ONEWEB-0511             
1 54129U 22138S   25210.86741037  .00000018  00000+0  12765-4 0  9996
2 54129  87.9233   9.0173 0002019 101.6046 258.5314 13.19725592135196
ONEWEB-0512             
1 54130U 22138T   25210.85951111  .00000063  00000+0  12480-3 0  9996
2 54130  87.9223   9.0633 0002286  92.1235 268.0159 13.19725470135163
ONEWEB-0513             
1 54131U 22138U   25210.84958803  .00000027  00000+0  34304-4 0  9991
2 54131  87.9238   9.0271 0002335  93.9765 266.1635 13.20265583135052
