[{"OBJECT_NAME":"ONEWEB-0495","OBJECT_ID":"2022-138C","EPOCH":"2025-07-29T20:10:22.789920","MEAN_MOTION":13.19724209,"ECCENTRICITY":0.0002436,"INCLINATION":87.923,"RA_OF_ASC_NODE":9.0617,"ARG_OF_PERICENTER":83.3026,"MEAN_ANOMALY":276.8384,"EPHEMERIS_TYPE":0,"CLASSIFICATION_TYPE":"U","NORAD_CAT_ID":54115,"ELEMENT_SET_NO":999,"REV_AT_EPOCH":13517,"BSTAR":2.4377e-5,"MEAN_MOTION_DOT":2.3e-7,"MEAN_MOTION_DDOT":0},{"OBJECT_NAME":"ONEWEB-0497","OBJECT_ID":"2022-138D","EPOCH":"2025-07-29T20:28:35.182272","MEAN_MOTION":13.197266,"ECCENTRICITY":0.000191,"INCLINATION":87.9233,"RA_OF_ASC_NODE":9.0309,"ARG_OF_PERICENTER":91.8649,"MEAN_ANOMALY":268.2702,"EPHEMERIS_TYPE":0,"CLASSIFICATION_TYPE":"U","NORAD_CAT_ID":54116,"ELEMENT_SET_NO":999,"REV_AT_EPOCH":13516,"BSTAR":0.00012751,"MEAN_MOTION_DOT":6.4e-7,"MEAN_MOTION_DDOT":0},{"OBJECT_NAME":"ONEWEB-0499","OBJECT_ID":"2022-138E","EPOCH":"2025-07-29T20:03:35.673984","MEAN_MOTION":13.19724955,"ECCENTRICITY":0.0002149,"INCLINATION":87.923,"RA_OF_ASC_NODE":9.0534,"ARG_OF_PERICENTER":98.4784,"MEAN_ANOMALY":261.6592,"EPHEMERIS_TYPE":0,"CLASSIFICATION_TYPE":"U","NORAD_CAT_ID":54117,"ELEMENT_SET_NO":999,"REV_AT_EPOCH":13517,"BSTAR":1.2617e-5,"MEAN_MOTION_DOT":1.8e-7,"MEAN_MOTION_DDOT":0},{"OBJECT_NAME":"ONEWEB-0500","OBJECT_ID":"2022-138F","EPOCH":"2025-07-29T20:08:07.269792","MEAN_MOTION":13.1972593,"ECCENTRICITY":0.0001801,"INCLINATION":87.9234,"RA_OF_ASC_NODE":9.0368,"ARG_OF_PERICENTER":92.9734,"MEAN_ANOMALY":267.1605,"EPHEMERIS_TYPE":0,"CLASSIFICATION_TYPE":"U","NORAD_CAT_ID":54118,"ELEMENT_SET_NO":999,"REV_AT_EPOCH":13518,"BSTAR":-3.7669e-5,"MEAN_MOTION_DOT":-2.0e-8,"MEAN_MOTION_DDOT":0},{"OBJECT_NAME":"ONEWEB-0501","OBJECT_ID":"2022-138G","EPOCH":"2025-07-29T20:51:21.293280","MEAN_MOTION":13.19724619,"ECCENTRICITY":0.000223,"INCLINATION":87.9233,"RA_OF_ASC_NODE":9.0237,"ARG_OF_PERICENTER":88.5165,"MEAN_ANOMALY":271.6223,"EPHEMERIS_TYPE":0,"CLASSIFICATION_TYPE":"U","NORAD_CAT_ID":54119,"ELEMENT_SET_NO":999,"REV_AT_EPOCH":13516,"BSTAR":6.7973e-6,"MEAN_MOTION_DOT":1.6e-7,"MEAN_MOTION_DDOT":0},{"OBJECT_NAME":"ONEWEB-0502","OBJECT_ID":"2022-138H","EPOCH":"2025-07-29T20:30:52.758720","MEAN_MOTION":13.19725163,"ECCENTRICITY":0.0002142,"INCLINATION":87.9232,"RA_OF_ASC_NODE":9.0102,"ARG_OF_PERICENTER":93.3806,"MEAN_ANOMALY":266.7571,"EPHEMERIS_TYPE":0,"CLASSIFICATION_TYPE":"U","NORAD_CAT_ID":54120,"ELEMENT_SET_NO":999,"REV_AT_EPOCH":13518,"BSTAR":8.127e-5,"MEAN_MOTION_DOT":4.5e-7,"MEAN_MOTION_DDOT":0},{"OBJECT_NAME":"ONEWEB-0503","OBJECT_ID":"2022-138J","EPOCH":"2025-07-29T11:09:03.904992","MEAN_MOTION":13.19726373,"ECCENTRICITY":0.0001971,"INCLINATION":87.9231,"RA_OF_ASC_NODE":9.0923,"ARG_OF_PERICENTER":103.0171,"MEAN_ANOMALY":257.1182,"EPHEMERIS_TYPE":0,"CLASSIFICATION_TYPE":"U","NORAD_CAT_ID":54121,"ELEMENT_SET_NO":999,"REV_AT_EPOCH":13425,"BSTAR":0.00021687,"MEAN_MOTION_DOT":1.0e-6,"MEAN_MOTION_DDOT":0},{"OBJECT_NAME":"ONEWEB-0504","OBJECT_ID":"2022-138K","EPOCH":"2025-07-29T19:56:45.551328","MEAN_MOTION":13.19725546,"ECCENTRICITY":0.0002158,"INCLINATION":87.9234,"RA_OF_ASC_NODE":9.0351,"ARG_OF_PERICENTER":94.6415,"MEAN_ANOMALY":265.4965,"EPHEMERIS_TYPE":0,"CLASSIFICATION_TYPE":"U","NORAD_CAT_ID":54122,"ELEMENT_SET_NO":999,"REV_AT_EPOCH":13518,"BSTAR":-4.828e-5,"MEAN_MOTION_DOT":-6.0e-8,"MEAN_MOTION_DDOT":0},{"OBJECT_NAME":"ONEWEB-0505","OBJECT_ID":"2022-138L","EPOCH":"2025-07-29T12:35:28.193568","MEAN_MOTION":13.19725112,"ECCENTRICITY":0.0002406,"INCLINATION":87.9232,"RA_OF_ASC_NODE":9.0852,"ARG_OF_PERICENTER":89.3758,"MEAN_ANOMALY":270.7651,"EPHEMERIS_TYPE":0,"CLASSIFICATION_TYPE":"U","NORAD_CAT_ID":54123,"ELEMENT_SET_NO":999,"REV_AT_EPOCH":13425,"BSTAR":0.00017642,"MEAN_MOTION_DOT":8.4e-7,"MEAN_MOTION_DDOT":0},{"OBJECT_NAME":"ONEWEB-0506","OBJECT_ID":"2022-138M","EPOCH":"2025-07-29T10:09:56.195712","MEAN_MOTION":13.19725667,"ECCENTRICITY":0.0002031,"INCLINATION":87.9232,"RA_OF_ASC_NODE":9.1023,"ARG_OF_PERICENTER":92.2065,"MEAN_ANOMALY":267.93,"EPHEMERIS_TYPE":0,"CLASSIFICATION_TYPE":"U","NORAD_CAT_ID":54124,"ELEMENT_SET_NO":999,"REV_AT_EPOCH":13423,"BSTAR":3.6309e-5,"MEAN_MOTION_DOT":2.7e-7,"MEAN_MOTION_DDOT":0},{"OBJECT_NAME":"ONEWEB-0507","OBJECT_ID":"2022-138N","EPOCH":"2025-07-29T21:34:32.141568","MEAN_MOTION":13.19725099,"ECCENTRICITY":0.000203,"INCLINATION":87.923,"RA_OF_ASC_NODE":9.0615,"ARG_OF_PERICENTER":89.5137,"MEAN_ANOMALY":270.6228,"EPHEMERIS_TYPE":0,"CLASSIFICATION_TYPE":"U","NORAD_CAT_ID":54125,"ELEMENT_SET_NO":999,"REV_AT_EPOCH":13521,"BSTAR":-0.00051493,"MEAN_MOTION_DOT":-1.93e-6,"MEAN_MOTION_DDOT":0},{"OBJECT_NAME":"ONEWEB-0508","OBJECT_ID":"2022-138P","EPOCH":"2025-07-29T12:24:07.901568","MEAN_MOTION":13.19726069,"ECCENTRICITY":0.0002152,"INCLINATION":87.9229,"RA_OF_ASC_NODE":9.1202,"ARG_OF_PERICENTER":85.8599,"MEAN_ANOMALY":274.278,"EPHEMERIS_TYPE":0,"CLASSIFICATION_TYPE":"U","NORAD_CAT_ID":54126,"ELEMENT_SET_NO":999,"REV_AT_EPOCH":13427,"BSTAR":0.00010783,"MEAN_MOTION_DOT":5.6e-7,"MEAN_MOTION_DDOT":0},{"OBJECT_NAME":"ONEWEB-0509","OBJECT_ID":"2022-138Q","EPOCH":"2025-07-29T20:53:36.758976","MEAN_MOTION":13.19725401,"ECCENTRICITY":0.0001982,"INCLINATION":87.9234,"RA_OF_ASC_NODE":9.011,"ARG_OF_PERICENTER":92.3312,"MEAN_ANOMALY":267.8047,"EPHEMERIS_TYPE":0,"CLASSIFICATION_TYPE":"U","NORAD_CAT_ID":54127,"ELEMENT_SET_NO":999,"REV_AT_EPOCH":13516,"BSTAR":1.4396e-5,"MEAN_MOTION_DOT":1.9e-7,"MEAN_MOTION_DDOT":0},{"OBJECT_NAME":"ONEWEB-0510","OBJECT_ID":"2022-138R","EPOCH":"2025-07-29T07:57:48.103200","MEAN_MOTION":13.20773015,"ECCENTRICITY":0.0001468,"INCLINATION":87.9296,"RA_OF_ASC_NODE":338.7602,"ARG_OF_PERICENTER":111.3131,"MEAN_ANOMALY":248.8159,"EPHEMERIS_TYPE":0,"CLASSIFICATION_TYPE":"U","NORAD_CAT_ID":54128,"ELEMENT_SET_NO":999,"REV_AT_EPOCH":13666,"BSTAR":0.00022773,"MEAN_MOTION_DOT":1.06e-6,"MEAN_MOTION_DDOT":0},{"OBJECT_NAME":"ONEWEB-0511","OBJECT_ID":"2022-138S","EPOCH":"2025-07-29T20:49:04.255968","MEAN_MOTION":13.19725592,"ECCENTRICITY":0.0002019,"INCLINATION":87.9233,"RA_OF_ASC_NODE":9.0173,"ARG_OF_PERICENTER":101.6046,"MEAN_ANOMALY":258.5314,"EPHEMERIS_TYPE":0,"CLASSIFICATION_TYPE":"U","NORAD_CAT_ID":54129,"ELEMENT_SET_NO":999,"REV_AT_EPOCH":13519,"BSTAR":1.2765e-5,"MEAN_MOTION_DOT":1.8e-7,"MEAN_MOTION_DDOT":0},{"OBJECT_NAME":"ONEWEB-0512","OBJECT_ID":"2022-138T","EPOCH":"2025-07-29T20:37:41.759904","MEAN_MOTION":13.1972547,"ECCENTRICITY":0.0002286,"INCLINATION":87.9223,"RA_OF_ASC_NODE":9.0633,"ARG_OF_PERICENTER":92.1235,"MEAN_ANOMALY":268.0159,"EPHEMERIS_TYPE":0,"CLASSIFICATION_TYPE":"U","NORAD_CAT_ID":54130,"ELEMENT_SET_NO":999,"REV_AT_EPOCH":13516,"BSTAR":0.0001248,"MEAN_MOTION_DOT":6.3e-7,"MEAN_MOTION_DDOT":0},{"OBJECT_NAME":"ONEWEB-0513","OBJECT_ID":"2022-138U","EPOCH":"2025-07-29T20:23:24.405792","MEAN_MOTION":13.20265583,"ECCENTRICITY":0.0002335,"INCLINATION":87.9238,"RA_OF_ASC_NODE":9.0271,"ARG_OF_PERICENTER":93.9765,"MEAN_ANOMALY":266.1635,"EPHEMERIS_TYPE":0,"CLASSIFICATION_TYPE":"U","NORAD_CAT_ID":54131,"ELEMENT_SET_NO":999,"REV_AT_EPOCH":13505,"BSTAR":3.4304e-5,"MEAN_MOTION_DOT":2.7e-7,"MEAN_MOTION_DDOT":0}]
